{
  "type": "FeatureCollection",
  "features": [
    {
      "type": "Feature",
      "properties": {
        "norad_id": 33791,
        "name": "COSMOS 2251 DEB",
        "group": "cosmos-2251-debris",
        "lat": 62.03008901565594,
        "lon": 64.10429336162841,
        "alt_km": 762.351960812457,
        "timestamp": "2025-12-15T20:48:54.276905+00:00",
        "meta_object_name": "COSMOS 2251 DEB",
        "meta_object_id": "1993-036AG",
        "meta_epoch": "2025-12-14T22:02:09.633984",
        "meta_mean_motion": 14.43136406,
        "meta_eccentricity": 0.00304417,
        "meta_inclination": 74.1757,
        "meta_ra_of_asc_node": 33.5699,
        "meta_arg_of_pericenter": 230.4328,
        "meta_mean_anomaly": 307.3725,
        "meta_ephemeris_type": 0,
        "meta_classification_type": "U",
        "meta_norad_cat_id": 33791,
        "meta_element_set_no": 999,
        "meta_rev_at_epoch": 88083,
        "meta_bstar": 0.00062590126,
        "meta_mean_motion_dot": 2.088e-05,
        "meta_mean_motion_ddot": 0,
        "tle_line1": "1 33791U 93036AG  25348.91816706  .00002088  00000+0  62590-3 0  9996",
        "tle_line2": "2 33791  74.1757  33.5699 0030441 230.4328 307.3725 14.43136406880831"
      },
      "geometry": {
        "type": "Point",
        "coordinates": [
          64.10429336162841,
          62.03008901565594
        ]
      }
    },
    {
      "type": "Feature",
      "properties": {
        "norad_id": 33792,
        "name": "COSMOS 2251 DEB",
        "group": "cosmos-2251-debris",
        "lat": 67.97946988768959,
        "lon": 114.78569984584715,
        "alt_km": 914.7177663910234,
        "timestamp": "2025-12-15T20:48:54.276915+00:00",
        "meta_object_name": "COSMOS 2251 DEB",
        "meta_object_id": "1993-036AH",
        "meta_epoch": "2025-12-14T23:03:13.398336",
        "meta_mean_motion": 13.45825882,
        "meta_eccentricity": 0.04271758,
        "meta_inclination": 73.901,
        "meta_ra_of_asc_node": 341.7976,
        "meta_arg_of_pericenter": 46.0382,
        "meta_mean_anomaly": 343.5063,
        "meta_ephemeris_type": 0,
        "meta_classification_type": "U",
        "meta_norad_cat_id": 33792,
        "meta_element_set_no": 999,
        "meta_rev_at_epoch": 82472,
        "meta_bstar": 0.00088734281,
        "meta_mean_motion_dot": 9e-06,
        "meta_mean_motion_ddot": 0,
        "tle_line1": "1 33792U 93036AH  25348.96057174  .00000900  00000+0  88734-3 0  9997",
        "tle_line2": "2 33792  73.9010 341.7976 0427175  46.0382 343.5063 13.45825882824725"
      },
      "geometry": {
        "type": "Point",
        "coordinates": [
          114.78569984584715,
          67.97946988768959
        ]
      }
    },
    {
      "type": "Feature",
      "properties": {
        "norad_id": 33793,
        "name": "COSMOS 2251 DEB",
        "group": "cosmos-2251-debris",
        "lat": 40.738945173800815,
        "lon": -50.09344882934756,
        "alt_km": 847.3821133921347,
        "timestamp": "2025-12-15T20:48:54.276925+00:00",
        "meta_object_name": "COSMOS 2251 DEB",
        "meta_object_id": "1993-036AJ",
        "meta_epoch": "2025-12-14T21:20:16.932768",
        "meta_mean_motion": 14.27730347,
        "meta_eccentricity": 0.00785497,
        "meta_inclination": 73.9804,
        "meta_ra_of_asc_node": 146.0109,
        "meta_arg_of_pericenter": 295.6911,
        "meta_mean_anomaly": 215.9849,
        "meta_ephemeris_type": 0,
        "meta_classification_type": "U",
        "meta_norad_cat_id": 33793,
        "meta_element_set_no": 999,
        "meta_rev_at_epoch": 87237,
        "meta_bstar": 0.00061454085,
        "meta_mean_motion_dot": 1.541e-05,
        "meta_mean_motion_ddot": 0,
        "tle_line1": "1 33793U 93036AJ  25348.88908487  .00001541  00000+0  61454-3 0  9993",
        "tle_line2": "2 33793  73.9804 146.0109 0078549 295.6911 215.9849 14.27730347872378"
      },
      "geometry": {
        "type": "Point",
        "coordinates": [
          -50.09344882934756,
          40.738945173800815
        ]
      }
    },
    {
      "type": "Feature",
      "properties": {
        "norad_id": 33795,
        "name": "COSMOS 2251 DEB",
        "group": "cosmos-2251-debris",
        "lat": -56.296767813600404,
        "lon": -84.25235698398473,
        "alt_km": 555.3047915760517,
        "timestamp": "2025-12-15T20:48:54.276936+00:00",
        "meta_object_name": "COSMOS 2251 DEB",
        "meta_object_id": "1993-036AL",
        "meta_epoch": "2025-12-14T15:36:10.610784",
        "meta_mean_motion": 15.05600218,
        "meta_eccentricity": 0.00312217,
        "meta_inclination": 74.032,
        "meta_ra_of_asc_node": 72.8198,
        "meta_arg_of_pericenter": 155.0681,
        "meta_mean_anomaly": 329.9088,
        "meta_ephemeris_type": 0,
        "meta_classification_type": "U",
        "meta_norad_cat_id": 33795,
        "meta_element_set_no": 999,
        "meta_rev_at_epoch": 90050,
        "meta_bstar": 0.0010437402,
        "meta_mean_motion_dot": 0.0001521,
        "meta_mean_motion_ddot": 0,
        "tle_line1": "1 33795U 93036AL  25348.65012281  .00015210  00000+0  10437-2 0  9990",
        "tle_line2": "2 33795  74.0320  72.8198 0031221 155.0681 329.9088 15.05600218900506"
      },
      "geometry": {
        "type": "Point",
        "coordinates": [
          -84.25235698398473,
          -56.296767813600404
        ]
      }
    },
    {
      "type": "Feature",
      "properties": {
        "norad_id": 33797,
        "name": "COSMOS 2251 DEB",
        "group": "cosmos-2251-debris",
        "lat": -58.77221983999419,
        "lon": -122.8341954178941,
        "alt_km": 732.3395363690242,
        "timestamp": "2025-12-15T20:48:54.276946+00:00",
        "meta_object_name": "COSMOS 2251 DEB",
        "meta_object_id": "1993-036AN",
        "meta_epoch": "2025-12-14T14:48:41.996736",
        "meta_mean_motion": 14.57856415,
        "meta_eccentricity": 0.00606159,
        "meta_inclination": 74.0481,
        "meta_ra_of_asc_node": 31.3914,
        "meta_arg_of_pericenter": 118.721,
        "meta_mean_anomaly": 45.0456,
        "meta_ephemeris_type": 0,
        "meta_classification_type": "U",
        "meta_norad_cat_id": 33797,
        "meta_element_set_no": 999,
        "meta_rev_at_epoch": 89012,
        "meta_bstar": 0.00040685532,
        "meta_mean_motion_dot": 1.881e-05,
        "meta_mean_motion_ddot": 0,
        "tle_line1": "1 33797U 93036AN  25348.61715274  .00001881  00000+0  40686-3 0  9999",
        "tle_line2": "2 33797  74.0481  31.3914 0060615 118.7210  45.0456 14.57856415890124"
      },
      "geometry": {
        "type": "Point",
        "coordinates": [
          -122.8341954178941,
          -58.77221983999419
        ]
      }
    },
    {
      "type": "Feature",
      "properties": {
        "norad_id": 33798,
        "name": "COSMOS 2251 DEB",
        "group": "cosmos-2251-debris",
        "lat": -25.368859353972518,
        "lon": 122.27548464075414,
        "alt_km": 739.7942508712649,
        "timestamp": "2025-12-15T20:48:54.276955+00:00",
        "meta_object_name": "COSMOS 2251 DEB",
        "meta_object_id": "1993-036AP",
        "meta_epoch": "2025-12-14T20:43:13.781280",
        "meta_mean_motion": 14.44616823,
        "meta_eccentricity": 0.00924757,
        "meta_inclination": 74.0284,
        "meta_ra_of_asc_node": 131.9497,
        "meta_arg_of_pericenter": 252.8625,
        "meta_mean_anomaly": 260.7265,
        "meta_ephemeris_type": 0,
        "meta_classification_type": "U",
        "meta_norad_cat_id": 33798,
        "meta_element_set_no": 999,
        "meta_rev_at_epoch": 88624,
        "meta_bstar": 0.00018754275,
        "meta_mean_motion_dot": 6.54e-06,
        "meta_mean_motion_ddot": 0,
        "tle_line1": "1 33798U 93036AP  25348.86335395  .00000654  00000+0  18754-3 0  9997",
        "tle_line2": "2 33798  74.0284 131.9497 0092475 252.8625 260.7265 14.44616823886243"
      },
      "geometry": {
        "type": "Point",
        "coordinates": [
          122.27548464075414,
          -25.368859353972518
        ]
      }
    },
    {
      "type": "Feature",
      "properties": {
        "norad_id": 33799,
        "name": "COSMOS 2251 DEB",
        "group": "cosmos-2251-debris",
        "lat": -64.8789598711317,
        "lon": -66.73176144360961,
        "alt_km": 641.4737667147674,
        "timestamp": "2025-12-15T20:48:54.276965+00:00",
        "meta_object_name": "COSMOS 2251 DEB",
        "meta_object_id": "1993-036AQ",
        "meta_epoch": "2025-12-14T16:38:51.893088",
        "meta_mean_motion": 14.79632963,
        "meta_eccentricity": 0.00232056,
        "meta_inclination": 74.0317,
        "meta_ra_of_asc_node": 77.9392,
        "meta_arg_of_pericenter": 147.9135,
        "meta_mean_anomaly": 333.1252,
        "meta_ephemeris_type": 0,
        "meta_classification_type": "U",
        "meta_norad_cat_id": 33799,
        "meta_element_set_no": 999,
        "meta_rev_at_epoch": 88840,
        "meta_bstar": 0.00097801121,
        "meta_mean_motion_dot": 7.342e-05,
        "meta_mean_motion_ddot": 0,
        "tle_line1": "1 33799U 93036AQ  25348.69365617  .00007342  00000+0  97801-3 0  9990",
        "tle_line2": "2 33799  74.0317  77.9392 0023205 147.9135 333.1252 14.79632963888401"
      },
      "geometry": {
        "type": "Point",
        "coordinates": [
          -66.73176144360961,
          -64.8789598711317
        ]
      }
    }
  ]
}